GOMX-1                  
1 39430U 13066Q   26156.20130332  .00002210  00000+0  33542-3 0  9993
2 39430  97.6487 357.4201 0130011 115.5827 245.8884 14.69412373668154
CUBEBUG-2 (LO-74)       
1 39440U 13066AA  26154.33051700  .00005093  00000+0  47123-3 0  9999
2 39440  97.8904 103.2522 0059453  73.9566 286.8190 14.93641817674922
NEE-02 KRYSAOR          
1 39441U 13066AB  26155.75699965  .00002457  00000+0  27225-3 0  9990
2 39441  97.8893  95.0615 0067693 109.9850 250.8672 14.86564783674353
FUNCUBE-1 (AO-73)       
1 39444U 13066AE  26155.59353272  .00008112  00000+0  50553-3 0  9997
2 39444  97.8278 126.7780 0034647 245.3456 114.4162 15.09331351677764
UWE-3                   
1 39446U 13066AG  26155.64928530  .00004713  00000+0  40572-3 0  9993
2 39446  97.8702 111.6406 0049326   3.6109 356.5458 14.96922367675703
SMDC ONE 2.4            
1 39469U 13072H   26156.01776382  .00011467  00000+0  44199-3 0  9996
2 39469 120.4931 305.1070 0143626   6.0550 354.2225 15.17944100115986
COSMOS 2488 (RODNIK-S 7)
1 39483U 13076A   26156.12443038 -.00000034  00000+0 -31754-3 0  9990
2 39483  82.4827 176.2106 0020684 120.2159 240.0972 12.42905275564391
COSMOS 2489 (RODNIK-S 8)
1 39484U 13076B   26156.17987363 -.00000026  00000+0 -25933-3 0  9993
2 39484  82.4864 177.5509 0022513 120.1904 240.1410 12.42879306564454
COSMOS 2490 (RODNIK-S 9)
1 39485U 13076C   26156.15174361 -.00000016  00000+0 -18950-3 0  9998
2 39485  82.4810 175.6411 0022446 135.3007 224.9887 12.42877591564388
KAZEOSAT 1              
1 39731U 14024A   26156.15690461  .00000251  00000+0  89393-4 0  9999
2 39731  98.3206 228.9025 0001511  76.8681 283.2678 14.42075333636828
COSMOS 2496 (RODNIK-S *)
1 39761U 14028A   26156.18978917 -.00000058  00000+0 -49109-3 0  9991
2 39761  82.4443 116.2456 0021174 103.6671 256.6768 12.42877637546021
COSMOS 2497 (RODNIK-S *)
1 39762U 14028B   26156.16522236 -.00000064  00000+0 -53592-3 0  9997
2 39762  82.4490 117.9460 0021773  98.9461 261.4085 12.42893218546024
COSMOS 2498 (RODNIK-S *)
1 39763U 14028C   26156.22414705 -.00000050  00000+0 -43228-3 0  9996
2 39763  82.4452 116.4014 0022487  98.5599 261.8029 12.42979353546064
HODOYOSHI-4             
1 40011U 14033B   26156.19973028  .00001445  00000+0  16198-3 0  9997
2 40011  97.5449 341.6008 0023528 349.2795  10.7918 14.88099099647029
UNISAT-6                
1 40012U 14033C   26155.96357532  .00004154  00000+0  44767-3 0  9991
2 40012  97.7872 308.8923 0046448 108.4393 252.1881 14.88176164644340
DEIMOS-2                
1 40013U 14033D   26156.19211881  .00001777  00000+0  17322-3 0  9999
2 40013  97.5835  31.1015 0001939  58.1667 301.9742 14.93689961635931
BUGSAT-1 (TITA)         
1 40014U 14033E   26156.15164251  .00005364  00000+0  28511-3 0  9992
2 40014  98.0422 247.9981 0027119 219.8940 140.0298 15.15448089654014
SAUDISAT 4              
1 40016U 14033G   26155.81018347  .00000943  00000+0  13064-3 0  9995
2 40016  97.7570 302.3744 0046146 113.0298 247.5790 14.79526950644248
APRIZESAT 9             
1 40018U 14033J   26156.19379675  .00000685  00000+0  10825-3 0  9998
2 40018  97.9047 289.6866 0064945 238.2194 121.2678 14.74198073641791
BRITE-CA1 (TORONTO)     
1 40020U 14033L   26155.94362867  .00000836  00000+0  13337-3 0  9997
2 40020  97.9725 285.0983 0077622 316.8495  42.6646 14.72659852640414
DUCHIFAT-1              
1 40021U 14033M   26155.66830056  .00095076  00000+0  10761-2 0  9994
2 40021  98.0472 213.0954 0004852 139.0185 221.1436 15.62101054653793
NANOSATC-BR1            
1 40024U 14033Q   26156.05089345  .00019638  00000+0  65634-3 0  9998
2 40024  98.0722 187.3677 0003177 199.6617 160.4500 15.31055935652125
