OBJECT_NAME,OBJECT_ID,EPOCH,MEAN_MOTION,ECCENTRICITY,INCLINATION,RA_OF_ASC_NODE,ARG_OF_PERICENTER,MEAN_ANOMALY,EPHEMERIS_TYPE,CLASSIFICATION_TYPE,NORAD_CAT_ID,ELEMENT_SET_NO,REV_AT_EPOCH,BSTAR,MEAN_MOTION_DOT,MEAN_MOTION_DDOT
GOMX-1,2013-066Q,2026-06-05T04:49:52.606848,14.69412373,.0130011,97.6487,357.4201,115.5827,245.8884,0,U,39430,999,66815,.33542E-3,.221E-4,0
CUBEBUG-2 (LO-74),2013-066AA,2026-06-03T07:55:56.668800,14.93641817,.00594532,97.8904,103.2522,73.9566,286.8190,0,U,39440,999,67492,.47122985E-3,.5093E-4,0
NEE-02 KRYSAOR,2013-066AB,2026-06-04T18:10:04.769760,14.86564783,.0067693,97.8893,95.0615,109.9850,250.8672,0,U,39441,999,67435,.27225E-3,.2457E-4,0
FUNCUBE-1 (AO-73),2013-066AE,2026-06-04T14:14:41.227008,15.09331351,.00346471,97.8278,126.7780,245.3456,114.4162,0,U,39444,999,67776,.50552791E-3,.8112E-4,0
UWE-3,2013-066AG,2026-06-04T15:34:58.249920,14.96922367,.00493262,97.8702,111.6406,3.6109,356.5458,0,U,39446,999,67570,.40572144E-3,.4713E-4,0
SMDC ONE 2.4,2013-072H,2026-06-05T00:25:34.794048,15.17944100,.0143626,120.4931,305.1070,6.0550,354.2225,0,U,39469,999,11598,.44199E-3,.11467E-3,0
COSMOS 2488 (RODNIK-S 7),2013-076A,2026-06-05T02:59:10.784832,12.42905275,.0020684,82.4827,176.2106,120.2159,240.0972,0,U,39483,999,56439,-.31754E-3,-.34E-6,0
COSMOS 2489 (RODNIK-S 8),2013-076B,2026-06-05T04:19:01.081632,12.42879306,.0022513,82.4864,177.5509,120.1904,240.1410,0,U,39484,999,56445,-.25933E-3,-.26E-6,0
COSMOS 2490 (RODNIK-S 9),2013-076C,2026-06-05T03:38:30.647904,12.42877591,.0022446,82.4810,175.6411,135.3007,224.9887,0,U,39485,999,56438,-.1895E-3,-.16E-6,0
KAZEOSAT 1,2014-024A,2026-06-05T03:45:56.558304,14.42075333,.0001511,98.3206,228.9025,76.8681,283.2678,0,U,39731,999,63682,.89393E-4,.251E-5,0
COSMOS 2496 (RODNIK-S 10),2014-028A,2026-06-05T04:33:17.784288,12.42877637,.0021174,82.4443,116.2456,103.6671,256.6768,0,U,39761,999,54602,-.49109E-3,-.58E-6,0
COSMOS 2497 (RODNIK-S 11),2014-028B,2026-06-05T03:57:55.211904,12.42893218,.0021773,82.4490,117.9460,98.9461,261.4085,0,U,39762,999,54602,-.53592E-3,-.64E-6,0
COSMOS 2498 (RODNIK-S 12),2014-028C,2026-06-05T05:22:46.305120,12.42979353,.0022487,82.4452,116.4014,98.5599,261.8029,0,U,39763,999,54606,-.43228E-3,-.5E-6,0
HODOYOSHI-4,2014-033B,2026-06-05T04:47:36.696192,14.88099099,.0023528,97.5449,341.6008,349.2795,10.7918,0,U,40011,999,64702,.16198E-3,.1445E-4,0
UNISAT-6,2014-033C,2026-06-04T23:07:32.907648,14.88176164,.0046448,97.7872,308.8923,108.4393,252.1881,0,U,40012,999,64434,.44767E-3,.4154E-4,0
DEIMOS-2,2014-033D,2026-06-05T04:36:39.065184,14.93689961,.0001939,97.5835,31.1015,58.1667,301.9742,0,U,40013,999,63593,.17322E-3,.1777E-4,0
BUGSAT-1 (TITA),2014-033E,2026-06-05T03:38:21.912864,15.15448089,.0027119,98.0422,247.9981,219.8940,140.0298,0,U,40014,999,65401,.28511E-3,.5364E-4,0
SAUDISAT 4,2014-033G,2026-06-04T19:26:39.851808,14.79526950,.0046146,97.7570,302.3744,113.0298,247.5790,0,U,40016,999,64424,.13064E-3,.943E-5,0
APRIZESAT 9,2014-033J,2026-06-05T04:39:04.039200,14.74198073,.0064945,97.9047,289.6866,238.2194,121.2678,0,U,40018,999,64179,.10825E-3,.685E-5,0
BRITE-CA1 (TORONTO),2014-033L,2026-06-04T22:38:49.517088,14.72659852,.0077622,97.9725,285.0983,316.8495,42.6646,0,U,40020,999,64041,.13337E-3,.836E-5,0
DUCHIFAT-1,2014-033M,2026-06-04T16:02:21.168384,15.62101054,.00048528,98.0472,213.0954,139.0185,221.1436,0,U,40021,999,65379,.10760804E-2,.95076E-3,0
NANOSATC-BR1,2014-033Q,2026-06-05T01:13:17.194080,15.31055935,.0003177,98.0722,187.3677,199.6617,160.4500,0,U,40024,999,65212,.65634E-3,.19638E-3,0
